[{"OBJECT_NAME":"STARLINK-30716","OBJECT_ID":"2023-148B","EPOCH":"2026-03-09T06:17:03.215328","MEAN_MOTION":15.3019174,"ECCENTRICITY":0.00012512,"INCLINATION":53.1622,"RA_OF_ASC_NODE":26.4173,"ARG_OF_PERICENTER":100.2139,"MEAN_ANOMALY":259.9003,"EPHEMERIS_TYPE":0,"CLASSIFICATION_TYPE":"U","NORAD_CAT_ID":57936,"ELEMENT_SET_NO":999,"REV_AT_EPOCH":13835,"BSTAR":-4.681835e-6,"MEAN_MOTION_DOT":-4.98e-6,"MEAN_MOTION_DDOT":0},{"OBJECT_NAME":"KUIPER-00226","OBJECT_ID":"2026-030X","EPOCH":"2026-03-09T15:01:51.726432","MEAN_MOTION":15.30655594,"ECCENTRICITY":0.0017713,"INCLINATION":51.8814,"RA_OF_ASC_NODE":220.1252,"ARG_OF_PERICENTER":64.2781,"MEAN_ANOMALY":296.003,"EPHEMERIS_TYPE":0,"CLASSIFICATION_TYPE":"U","NORAD_CAT_ID":67785,"ELEMENT_SET_NO":999,"REV_AT_EPOCH":507,"BSTAR":0.001553,"MEAN_MOTION_DOT":0.00046834,"MEAN_MOTION_DDOT":0}]
